COSMOS 2251 DEB         
1 35718U 93036AQP 26116.56116510  .00009113  00000+0  14774-2 0  9994
2 35718  74.0323 228.4678 0010735 248.4162 111.5866 14.71289531678218
COSMOS 2251 DEB         
1 35721U 93036AQS 26100.33156769  .00004154  00000+0  12864-2 0  9994
2 35721  73.9503 319.1392 0145530  80.1989 281.5560 14.35560467594903
COSMOS 2251 DEB         
1 35724U 93036AQV 26116.07111613  .00000850  00000+0  18482-3 0  9996
2 35724  74.0332  46.9422 0060403 167.8625 192.4013 14.58531078894875
COSMOS 2251 DEB         
1 35759U 93036ARD 26111.31287665  .00000922  00000+0  16945-3 0  9999
2 35759  74.0371 326.7613 0075343  52.6055 308.1941 14.65371217680339
COSMOS 2251 DEB         
1 35764U 93036ARJ 26112.59295131  .00006017  00000+0  81440-3 0  9996
2 35764  74.0221  86.1781 0025384 178.9832 181.1400 14.78974138679812
COSMOS 2251 DEB         
1 35771U 93036ARR 26116.83448044  .00015628  00000+0  63917-2 0  9994
2 35771  74.1552  72.2890 0207496 332.5072  26.5211 14.16242805847714
COSMOS 2251 DEB         
1 35773U 93036ART 26116.62851209  .00002429  00000+0  47317-3 0  9996
2 35773  74.0055  81.9234 0047656 208.1621 151.6969 14.62900247888111
COSMOS 2251 DEB         
1 35777U 93036ARX 26116.24574654  .00000653  00000+0  66753-3 0  9996
2 35777  73.7678 107.8330 0450403 342.3790  34.0874 13.41435055814881
COSMOS 2251 DEB         
1 35784U 93036ASE 26115.49420522  .00000619  00000+0  16415-3 0  9996
2 35784  74.0375 198.4758 0042295 293.8751  65.7981 14.50349087676459
COSMOS 2251 DEB         
1 35786U 93036ASG 26114.51787802  .00002673  00000+0  46925-3 0  9998
2 35786  74.0115 147.1647 0036997 243.1391 116.5995 14.67801919753553
COSMOS 2251 DEB         
1 35789U 93036ASK 26116.74931703  .00000284  00000+0  10504-3 0  9999
2 35789  74.0405  36.5337 0046883 105.0419 255.5929 14.36088131631653
COSMOS 2251 DEB         
1 35793U 93036ASP 26115.37109138  .00010129  00000+0  12612-2 0  9991
2 35793  74.0388 156.7167 0006641 229.4853 145.2626 14.82565259677757
COSMOS 2251 DEB         
1 35824U 93036ASW 26116.43355735  .00001979  00000+0  12784-2 0  9993
2 35824  73.8441 177.1376 0254205 239.0824 118.5091 13.88969766860977
COSMOS 2251 DEB         
1 35825U 93036ASX 26112.16311460  .00000974  00000+0  71305-3 0  9996
2 35825  74.1092 288.1148 0351224 353.3008   6.3474 13.71521840842964
COSMOS 2251 DEB         
1 35829U 93036ATB 26116.55079634  .00012472  00000+0  16439-2 0  9993
2 35829  74.0230 193.7729 0007921 236.9703 123.0713 14.80130190897673
COSMOS 2251 DEB         
1 35830U 93036ATC 26114.47317885  .00003429  00000+0  13654-2 0  9995
2 35830  73.8609  24.6126 0117091 326.0536  33.3154 14.25327250631548
