[{"OBJECT_NAME":"COSMOS 2251 DEB","OBJECT_ID":"1993-036AQP","EPOCH":"2026-04-26T13:28:04.664640","MEAN_MOTION":14.71289531,"ECCENTRICITY":0.0010735,"INCLINATION":74.0323,"RA_OF_ASC_NODE":228.4678,"ARG_OF_PERICENTER":248.4162,"MEAN_ANOMALY":111.5866,"EPHEMERIS_TYPE":0,"CLASSIFICATION_TYPE":"U","NORAD_CAT_ID":35718,"ELEMENT_SET_NO":999,"REV_AT_EPOCH":67821,"BSTAR":0.0014774,"MEAN_MOTION_DOT":9.113e-5,"MEAN_MOTION_DDOT":0},{"OBJECT_NAME":"COSMOS 2251 DEB","OBJECT_ID":"1993-036AQS","EPOCH":"2026-04-10T07:57:27.448416","MEAN_MOTION":14.35560467,"ECCENTRICITY":0.01455308,"INCLINATION":73.9503,"RA_OF_ASC_NODE":319.1392,"ARG_OF_PERICENTER":80.1989,"MEAN_ANOMALY":281.556,"EPHEMERIS_TYPE":0,"CLASSIFICATION_TYPE":"U","NORAD_CAT_ID":35721,"ELEMENT_SET_NO":999,"REV_AT_EPOCH":59490,"BSTAR":0.0012863897,"MEAN_MOTION_DOT":4.154e-5,"MEAN_MOTION_DDOT":0},{"OBJECT_NAME":"COSMOS 2251 DEB","OBJECT_ID":"1993-036AQV","EPOCH":"2026-04-26T01:42:24.433632","MEAN_MOTION":14.58531078,"ECCENTRICITY":0.00604033,"INCLINATION":74.0332,"RA_OF_ASC_NODE":46.9422,"ARG_OF_PERICENTER":167.8625,"MEAN_ANOMALY":192.4013,"EPHEMERIS_TYPE":0,"CLASSIFICATION_TYPE":"U","NORAD_CAT_ID":35724,"ELEMENT_SET_NO":999,"REV_AT_EPOCH":89487,"BSTAR":0.00018482277,"MEAN_MOTION_DOT":8.5e-6,"MEAN_MOTION_DDOT":0},{"OBJECT_NAME":"COSMOS 2251 DEB","OBJECT_ID":"1993-036ARD","EPOCH":"2026-04-21T07:30:32.542560","MEAN_MOTION":14.65371217,"ECCENTRICITY":0.00753436,"INCLINATION":74.0371,"RA_OF_ASC_NODE":326.7613,"ARG_OF_PERICENTER":52.6055,"MEAN_ANOMALY":308.1941,"EPHEMERIS_TYPE":0,"CLASSIFICATION_TYPE":"U","NORAD_CAT_ID":35759,"ELEMENT_SET_NO":999,"REV_AT_EPOCH":68033,"BSTAR":0.00016944892,"MEAN_MOTION_DOT":9.22e-6,"MEAN_MOTION_DDOT":0},{"OBJECT_NAME":"COSMOS 2251 DEB","OBJECT_ID":"1993-036ARJ","EPOCH":"2026-04-22T14:13:50.993184","MEAN_MOTION":14.78974138,"ECCENTRICITY":0.00253847,"INCLINATION":74.0221,"RA_OF_ASC_NODE":86.1781,"ARG_OF_PERICENTER":178.9832,"MEAN_ANOMALY":181.14,"EPHEMERIS_TYPE":0,"CLASSIFICATION_TYPE":"U","NORAD_CAT_ID":35764,"ELEMENT_SET_NO":999,"REV_AT_EPOCH":67981,"BSTAR":0.00081440299,"MEAN_MOTION_DOT":6.017e-5,"MEAN_MOTION_DDOT":0},{"OBJECT_NAME":"COSMOS 2251 DEB","OBJECT_ID":"1993-036ARR","EPOCH":"2026-04-26T20:01:39.110016","MEAN_MOTION":14.16242805,"ECCENTRICITY":0.0207496,"INCLINATION":74.1552,"RA_OF_ASC_NODE":72.289,"ARG_OF_PERICENTER":332.5072,"MEAN_ANOMALY":26.5211,"EPHEMERIS_TYPE":0,"CLASSIFICATION_TYPE":"U","NORAD_CAT_ID":35771,"ELEMENT_SET_NO":999,"REV_AT_EPOCH":84771,"BSTAR":0.0063917,"MEAN_MOTION_DOT":0.00015628,"MEAN_MOTION_DDOT":0},{"OBJECT_NAME":"COSMOS 2251 DEB","OBJECT_ID":"1993-036ART","EPOCH":"2026-04-26T15:05:03.444576","MEAN_MOTION":14.62900247,"ECCENTRICITY":0.0047656,"INCLINATION":74.0055,"RA_OF_ASC_NODE":81.9234,"ARG_OF_PERICENTER":208.1621,"MEAN_ANOMALY":151.6969,"EPHEMERIS_TYPE":0,"CLASSIFICATION_TYPE":"U","NORAD_CAT_ID":35773,"ELEMENT_SET_NO":999,"REV_AT_EPOCH":88811,"BSTAR":0.00047317,"MEAN_MOTION_DOT":2.429e-5,"MEAN_MOTION_DDOT":0},{"OBJECT_NAME":"COSMOS 2251 DEB","OBJECT_ID":"1993-036ARX","EPOCH":"2026-04-26T05:53:52.501056","MEAN_MOTION":13.41435055,"ECCENTRICITY":0.04504032,"INCLINATION":73.7678,"RA_OF_ASC_NODE":107.833,"ARG_OF_PERICENTER":342.379,"MEAN_ANOMALY":34.0874,"EPHEMERIS_TYPE":0,"CLASSIFICATION_TYPE":"U","NORAD_CAT_ID":35777,"ELEMENT_SET_NO":999,"REV_AT_EPOCH":81488,"BSTAR":0.00066753164,"MEAN_MOTION_DOT":6.53e-6,"MEAN_MOTION_DDOT":0},{"OBJECT_NAME":"COSMOS 2251 DEB","OBJECT_ID":"1993-036ASE","EPOCH":"2026-04-25T11:51:39.331008","MEAN_MOTION":14.50349087,"ECCENTRICITY":0.00422953,"INCLINATION":74.0375,"RA_OF_ASC_NODE":198.4758,"ARG_OF_PERICENTER":293.8751,"MEAN_ANOMALY":65.7981,"EPHEMERIS_TYPE":0,"CLASSIFICATION_TYPE":"U","NORAD_CAT_ID":35784,"ELEMENT_SET_NO":999,"REV_AT_EPOCH":67645,"BSTAR":0.00016415153,"MEAN_MOTION_DOT":6.19e-6,"MEAN_MOTION_DDOT":0},{"OBJECT_NAME":"COSMOS 2251 DEB","OBJECT_ID":"1993-036ASG","EPOCH":"2026-04-24T12:25:44.660928","MEAN_MOTION":14.67801919,"ECCENTRICITY":0.00369972,"INCLINATION":74.0115,"RA_OF_ASC_NODE":147.1647,"ARG_OF_PERICENTER":243.1391,"MEAN_ANOMALY":116.5995,"EPHEMERIS_TYPE":0,"CLASSIFICATION_TYPE":"U","NORAD_CAT_ID":35786,"ELEMENT_SET_NO":999,"REV_AT_EPOCH":75355,"BSTAR":0.00046925465,"MEAN_MOTION_DOT":2.673e-5,"MEAN_MOTION_DDOT":0},{"OBJECT_NAME":"COSMOS 2251 DEB","OBJECT_ID":"1993-036ASK","EPOCH":"2026-04-26T17:59:00.991392","MEAN_MOTION":14.36088131,"ECCENTRICITY":0.0046883,"INCLINATION":74.0405,"RA_OF_ASC_NODE":36.5337,"ARG_OF_PERICENTER":105.0419,"MEAN_ANOMALY":255.5929,"EPHEMERIS_TYPE":0,"CLASSIFICATION_TYPE":"U","NORAD_CAT_ID":35789,"ELEMENT_SET_NO":999,"REV_AT_EPOCH":63165,"BSTAR":0.00010504,"MEAN_MOTION_DOT":2.84e-6,"MEAN_MOTION_DDOT":0},{"OBJECT_NAME":"COSMOS 2251 DEB","OBJECT_ID":"1993-036ASP","EPOCH":"2026-04-25T08:54:22.295232","MEAN_MOTION":14.82565259,"ECCENTRICITY":0.00066419,"INCLINATION":74.0388,"RA_OF_ASC_NODE":156.7167,"ARG_OF_PERICENTER":229.4853,"MEAN_ANOMALY":145.2626,"EPHEMERIS_TYPE":0,"CLASSIFICATION_TYPE":"U","NORAD_CAT_ID":35793,"ELEMENT_SET_NO":999,"REV_AT_EPOCH":67775,"BSTAR":0.0012612077,"MEAN_MOTION_DOT":0.00010129,"MEAN_MOTION_DDOT":0},{"OBJECT_NAME":"COSMOS 2251 DEB","OBJECT_ID":"1993-036ASW","EPOCH":"2026-04-26T10:24:19.355040","MEAN_MOTION":13.88969766,"ECCENTRICITY":0.02542059,"INCLINATION":73.8441,"RA_OF_ASC_NODE":177.1376,"ARG_OF_PERICENTER":239.0824,"MEAN_ANOMALY":118.5091,"EPHEMERIS_TYPE":0,"CLASSIFICATION_TYPE":"U","NORAD_CAT_ID":35824,"ELEMENT_SET_NO":999,"REV_AT_EPOCH":86097,"BSTAR":0.0012784064,"MEAN_MOTION_DOT":1.979e-5,"MEAN_MOTION_DDOT":0},{"OBJECT_NAME":"COSMOS 2251 DEB","OBJECT_ID":"1993-036ASX","EPOCH":"2026-04-22T03:54:53.101440","MEAN_MOTION":13.7152184,"ECCENTRICITY":0.03512249,"INCLINATION":74.1092,"RA_OF_ASC_NODE":288.1148,"ARG_OF_PERICENTER":353.3008,"MEAN_ANOMALY":6.3474,"EPHEMERIS_TYPE":0,"CLASSIFICATION_TYPE":"U","NORAD_CAT_ID":35825,"ELEMENT_SET_NO":999,"REV_AT_EPOCH":84296,"BSTAR":0.00071304757,"MEAN_MOTION_DOT":9.74e-6,"MEAN_MOTION_DDOT":0},{"OBJECT_NAME":"COSMOS 2251 DEB","OBJECT_ID":"1993-036ATB","EPOCH":"2026-04-26T13:13:08.803776","MEAN_MOTION":14.8013019,"ECCENTRICITY":0.0007921,"INCLINATION":74.023,"RA_OF_ASC_NODE":193.7729,"ARG_OF_PERICENTER":236.9703,"MEAN_ANOMALY":123.0713,"EPHEMERIS_TYPE":0,"CLASSIFICATION_TYPE":"U","NORAD_CAT_ID":35829,"ELEMENT_SET_NO":999,"REV_AT_EPOCH":89767,"BSTAR":0.0016439,"MEAN_MOTION_DOT":0.00012472,"MEAN_MOTION_DDOT":0},{"OBJECT_NAME":"COSMOS 2251 DEB","OBJECT_ID":"1993-036ATC","EPOCH":"2026-04-24T11:21:22.652640","MEAN_MOTION":14.2532725,"ECCENTRICITY":0.01170919,"INCLINATION":73.8609,"RA_OF_ASC_NODE":24.6126,"ARG_OF_PERICENTER":326.0536,"MEAN_ANOMALY":33.3154,"EPHEMERIS_TYPE":0,"CLASSIFICATION_TYPE":"U","NORAD_CAT_ID":35830,"ELEMENT_SET_NO":999,"REV_AT_EPOCH":63154,"BSTAR":0.0013653682,"MEAN_MOTION_DOT":3.429e-5,"MEAN_MOTION_DDOT":0}]
